HORYU-4                 
1 41340U 16012D   21192.74378603  .00000593  00000-0  37682-4 0  9992
2 41340  31.0063  11.9160 0013588  53.3510 306.8374 15.01925306296445
E-ST@R-II               
1 41459U 16025D   21192.83091402  .00001421  00000-0  72892-4 0  9999
2 41459  98.1454 330.4884 0159051 340.9294  18.6005 15.08216157286099
AAUSAT 4                
1 41460U 16025E   21192.67728090  .00001434  00000-0  70181-4 0  9996
2 41460  98.1455 334.3269 0145820 324.8852  34.2826 15.11339176286379
BEESAT-4                
1 41619U 16040W   21192.40008765  .00001715  00000-0  70123-4 0  9998
2 41619  97.2677 247.8197 0009041 241.4663 118.5666 15.25650109268664
CANX-7                  
1 41788U 16059F   21192.71543848  .00012006  00000-0  13317-2 0  9990
2 41788  98.2541 298.7868 0030167 124.3827 235.9218 14.87085284257473
RAVAN                   
1 41849U 16067B   21192.29330557  .00001251  00000-0  10805-3 0  9991
2 41849  97.9679 315.6333 0009445  43.3104 316.8859 14.99103842254862
CELTEE 1                
1 41850U 16067C   21192.27255161  .00000563  00000-0  53590-4 0  9992
2 41850  97.9577 312.0510 0009396  42.5331 317.6616 14.97481595254689
OPTICUBE 04             
1 41851U 16067D   21192.54853660  .00000772  00000-0  72178-4 0  9996
2 41851  97.9572 311.7036 0009882  44.2589 315.9421 14.97131476254694
AEROCUBE 8D             
1 41852U 16067E   21192.28549644  .00000824  00000-0  76433-4 0  9998
2 41852  97.9573 311.3143 0010682  44.5784 315.6295 14.97253035254637
AEROCUBE 8C             
1 41853U 16067F   21192.79380206  .00000317  00000-0  32683-4 0  9998
2 41853  97.9556 311.6962 0010515  42.1876 318.0152 14.97212655254702
PROMETHEUS 2-1          
1 41854U 16067G   21192.32480781  .00000380  00000-0  37680-4 0  9999
2 41854  97.9565 311.8486 0010639  40.8449 319.3568 14.97717215254666
PROMETHEUS 2-3          
1 41855U 16067H   21192.78959180  .00000363  00000-0  36181-4 0  9990
2 41855  97.9570 312.3767 0010832  39.3113 320.8893 14.97734732254736
INS-1B                  
1 41954U 17008G   21192.72541778  .00001894  00000-0  75632-4 0  9994
2 41954  97.3066 255.2998 0009048  17.7229 342.4323 15.26334741244710
BGUSAT                  
1 41999U 17008BD  21192.75005671  .00003266  00000-0  11416-3 0  9997
2 41999  97.3236 262.0882 0007560  22.1811 337.9756 15.30236340244428
DIDO-2                  
1 42000U 17008BE  21192.43245604  .00001006  00000-0  42512-4 0  9990
2 42000  97.3063 255.2293 0009107  37.5255 322.6617 15.25459882244048
PEASSS                  
1 42015U 17008BV  21192.14183314  .00001665  00000-0  65477-4 0  9999
2 42015  97.3104 257.4717 0007024  41.4072 318.7698 15.27018920244638
AL-FARABI 1             
1 42016U 17008BW  21192.49288617  .00001906  00000-0  71817-4 0  9993
2 42016  97.3154 259.6556 0006686  39.2115 320.9608 15.28274715244908
NAYIF-1 (EO-88)         
1 42017U 17008BX  21192.45973942  .00001923  00000-0  72324-4 0  9995
2 42017  97.3147 259.6303 0006737  38.4488 321.7230 15.28328489244922
UCLSAT                  
1 42765U 17036A   21192.40839743  .00001565  00000-0  65424-4 0  9996
2 42765  97.2474 241.2069 0012696  93.4394 266.8297 15.24975587225821
LITUANICASAT-2          
1 42768U 17036D   21192.66338595  .00003195  00000-0  12470-3 0  9999
2 42768  97.2549 242.3318 0015389  82.5209 277.7777 15.26511408225163
AALTO-1                 
1 42775U 17036L   21192.07647467  .00001192  00000-0  53830-4 0  9994
2 42775  97.2451 237.4671 0015283  91.8808 268.4179 15.22756121224791
URSA MAIOR              
1 42776U 17036M   21192.33760103  .00001165  00000-0  52250-4 0  9992
2 42776  97.2465 238.1988 0015076  90.5467 269.7498 15.23026937224854
COMPASS 2               
1 42777U 17036N   21192.38442428  .00002266  00000-0  91083-4 0  9995
2 42777  97.2534 242.1938 0013421  84.9871 275.2900 15.25856957225069
DIAMOND RED             
1 42783U 17036U   21192.41519552  .00001265  00000-0  54998-4 0  9991
2 42783  97.2481 240.0146 0013430  96.5600 263.7167 15.23969392224965
PEGASUS                 
1 42784U 17036V   21192.39507300  .00001588  00000-0  67204-4 0  9999
2 42784  97.2486 240.7053 0013214  94.9305 265.3442 15.24540779225004
DIAMOND GREEN           
1 42785U 17036W   21192.41347520  .00001384  00000-0  59923-4 0  9992
2 42785  97.2483 240.0630 0013309  97.0688 263.2063 15.23970219225033
DIAMOND BLUE            
1 42786U 17036X   21192.67485963  .00000693  00000-0  31391-4 0  9996
2 42786  97.2482 240.3091 0013211  96.6623 263.6119 15.23981687224994
NUDTSAT                 
1 42787U 17036Y   21192.56732866  .00003182  00000-0  12428-3 0  9997
2 42787  97.2529 243.3574 0012187  83.5500 276.7128 15.26538302225010
SUCHAI                  
1 42788U 17036Z   21192.38154111  .00001795  00000-0  73817-4 0  9997
2 42788  97.2492 241.7125 0012739  92.5957 267.6740 15.25354363225137
SKCUBE                  
1 42789U 17036AA  21192.41490450  .00001629  00000-0  67783-4 0  9992
2 42789  97.2486 241.4458 0012662  93.0590 267.2097 15.25080870225041
VZLUSAT-1               
1 42790U 17036AB  21192.36512647  .00002236  00000-0  88208-4 0  9991
2 42790  97.2519 243.1508 0012016  89.4350 270.8266 15.26509892225130
ROBUSTA-1B              
1 42792U 17036AD  21192.38001033  .00001741  00000-0  71748-4 0  9998
2 42792  97.2489 241.8007 0012235  93.1510 267.1129 15.25322705225075
CICERO 6                
1 42793U 17036AE  21192.65497685  .00001312  00000-0  56629-4 0  9996
2 42793  97.2463 240.8330 0011679  95.8265 264.4305 15.24171498225125
D-SAT                   
1 42794U 17036AF  21192.50915550  .00000213  00000-0  23418-4 0  9996
2 42794  97.4600 211.1226 0126471 144.9521 216.0105 14.91598729220640
CORVUS BC2              
1 42846U 17042X   21192.63826902  .00000240  00000-0  28581-4 0  9993
2 42846  97.4696  63.4181 0011029  62.2608 297.9729 14.92317140217442
CORVUS BC1              
1 42847U 17042Y   21192.54035464  .00000157  00000-0  20423-4 0  9993
2 42847  97.4699  63.5681 0010663  61.6794 298.5500 14.92418234217433
MIRATA                  
1 43015U 17073C   21192.71867974  .00000759  00000-0  63388-4 0  9998
2 43015  97.7019  96.0891 0248396 217.2679 141.1074 14.80805644196809
MAKERSAT 0              
1 43016U 17073D   21192.29227068  .00000433  00000-0  38897-4 0  9992
2 43016  97.7052  95.6985 0252230 220.9674 137.2349 14.80038084196700
AEROCUBE 7B (OCSD B)    
1 43042U 17071F   21192.53759377  .00006370  00000-0  12400-3 0  9996
2 43042  51.6377 310.8255 0003650  38.9906 321.1345 15.48924043202561
AEROCUBE 7C (OCSD C)    
1 43043U 17071G   21192.56509600  .00005214  00000-0  10379-3 0  9991
2 43043  51.6370 311.0096 0003858  43.3269 316.8022 15.48701239202533
CHEFSAT                 
1 43044U 17071H   21192.47588092  .00017595  00000-0  20610-3 0  9998
2 43044  51.6347 274.0943 0002972  33.2948 326.8232 15.61621470203027
ASGARDIA 1              
1 43049U 17071N   21192.50685516  .00004717  00000-0  95298-4 0  9993
2 43049  51.6389 310.7552 0002045  63.2351 296.8847 15.48510503202536
ISARA                   
1 43050U 17071P   21192.52672571  .00014060  00000-0  18877-3 0  9993
2 43050  51.6321 281.7009 0001285  36.8257 323.2824 15.58211306202927
PROPCUBE 2 (FAUNA)      
1 43052U 17071R   21192.58650327  .00006478  00000-0  12359-3 0  9999
2 43052  51.6372 306.7854 0001908  60.4979 299.6200 15.49475795202587
CORVUS BC3              
1 43118U 18004H   21192.44365798  .00001071  00000-0  46653-4 0  9998
2 43118  97.4026 264.6945 0011488 120.8582 239.3787 15.24326401194237
MICROMAS-2A             
1 43131U 18004W   21192.49117482  .00002531  00000-0  96525-4 0  9998
2 43131  97.4110 268.2634 0009973 114.6886 245.5393 15.27574265194435
SPACEBEE-4              
1 43139U 18004AE  21192.28134757  .00003896  00000-0  13714-3 0  9990
2 43139  97.4176 270.5117 0009242 113.9171 246.3039 15.29889225194539
SPACEBEE-3              
1 43140U 18004AF  21192.48831408  .00005102  00000-0  16897-3 0  9998
2 43140  97.4209 272.2844 0008694 110.0814 250.1364 15.31727150194654
SPACEBEE-2              
1 43141U 18004AG  21192.48657804  .00005514  00000-0  17880-3 0  9995
2 43141  97.4226 272.8845 0008609 108.9960 251.2215 15.32366958194681
SPACEBEE-1              
1 43142U 18004AH  21192.45200802  .00006184  00000-0  19548-3 0  9992
2 43142  97.4238 273.4576 0008415 108.3043 251.9115 15.33138902194700
CICERO 7                
1 43143U 18004AJ  21192.76537023  .00002631  00000-0  10074-3 0  9993
2 43143  97.4082 268.5704 0008272 120.9703 239.2350 15.27417697194490
GOMX-4B                 
1 43196U 18015E   21192.68111215  .00000599  00000-0  26881-4 0  9990
2 43196  97.4884 325.7007 0018546 170.1586 190.0018 15.24985238191200
GOMX-4A                 
1 43197U 18015F   21192.83238304  .00001405  00000-0  58137-4 0  9993
2 43197  97.4875 326.1279 0018634 170.6162 343.3510 15.25520723191250
AEROCUBE 12A            
1 43556U 18046C   21192.53989284  .00001585  00000-0  62463-4 0  9999
2 43556  51.6415  33.3785 0007036 248.2196 111.8037 15.31923113166973
AEROCUBE 12B            
1 43557U 18046D   21192.18758670  .00001957  00000-0  75731-4 0  9999
2 43557  51.6410  36.9902 0007246 245.1833 114.8395 15.31294590166842
SURFSAT                 
1 43614U 18070B   21192.35691571  .00003639  00000-0  84344-4 0  9994
2 43614  93.0347 315.9483 0011300 270.4670  89.5291 15.42413318158358
CP7 (DAVE)              
1 43615U 18070C   21192.31386634  .00003386  00000-0  79275-4 0  9998
2 43615  93.0352 315.8833 0011494 270.9010  89.0929 15.42113158158330
ELFIN-B                 
1 43616U 18070D   21192.35531862  .00006383  00000-0  13468-3 0  9999
2 43616  93.0306 316.1195 0011267 266.7260  93.2708 15.45168525158460
ELFIN-A                 
1 43617U 18070E   21192.37236866  .00006580  00000-0  13651-3 0  9991
2 43617  93.0355 316.9960 0010733 262.3849  97.6190 15.45667960158487
